{
  "type": "FeatureCollection",
  "features": [
    {
      "type": "Feature",
      "properties": {
        "norad_id": 37836,
        "name": "EUTELSAT 16A",
        "group": "eutelsat",
        "lat": 0.07861912256123826,
        "lon": 54.067719751775996,
        "alt_km": 35810.45422845933,
        "timestamp": "2025-12-04T21:36:15.545782+00:00",
        "meta_object_name": "EUTELSAT 16A",
        "meta_object_id": "2011-057A",
        "meta_epoch": "2025-12-04T08:39:45.275616",
        "meta_mean_motion": 1.0027335,
        "meta_eccentricity": 0.00065429,
        "meta_inclination": 0.0587,
        "meta_ra_of_asc_node": 348.7251,
        "meta_arg_of_pericenter": 271.6062,
        "meta_mean_anomaly": 319.0619,
        "meta_ephemeris_type": 0,
        "meta_classification_type": "U",
        "meta_norad_cat_id": 37836,
        "meta_element_set_no": 999,
        "meta_rev_at_epoch": 537,
        "meta_bstar": 0,
        "meta_mean_motion_dot": 1.2e-06,
        "meta_mean_motion_ddot": 0,
        "tle_line1": "1 37836U 11057A   25338.36094069  .00000120  00000+0  00000+0 0  9990",
        "tle_line2": "2 37836   0.0587 348.7251 0006542 271.6062 319.0619  1.00273350  5375"
      },
      "geometry": {
        "type": "Point",
        "coordinates": [
          54.067719751775996,
          0.07861912256123826
        ]
      }
    },
    {
      "type": "Feature",
      "properties": {
        "norad_id": 38992,
        "name": "EUTELSAT 21B",
        "group": "eutelsat",
        "lat": 0.08981798459470551,
        "lon": 59.65516640229804,
        "alt_km": 35798.10279240217,
        "timestamp": "2025-12-04T21:36:15.545793+00:00",
        "meta_object_name": "EUTELSAT 21B",
        "meta_object_id": "2012-062B",
        "meta_epoch": "2025-12-04T05:16:03.822816",
        "meta_mean_motion": 1.00274134,
        "meta_eccentricity": 0.0003375,
        "meta_inclination": 0.0676,
        "meta_ra_of_asc_node": 347.5432,
        "meta_arg_of_pericenter": 278.9429,
        "meta_mean_anomaly": 267.4453,
        "meta_ephemeris_type": 0,
        "meta_classification_type": "U",
        "meta_norad_cat_id": 38992,
        "meta_element_set_no": 999,
        "meta_rev_at_epoch": 4787,
        "meta_bstar": 0,
        "meta_mean_motion_dot": 1.46e-06,
        "meta_mean_motion_ddot": 0,
        "tle_line1": "1 38992U 12062B   25338.21948869  .00000146  00000+0  00000+0 0  9999",
        "tle_line2": "2 38992   0.0676 347.5432 0003375 278.9429 267.4453  1.00274134 47878"
      },
      "geometry": {
        "type": "Point",
        "coordinates": [
          59.65516640229804,
          0.08981798459470551
        ]
      }
    },
    {
      "type": "Feature",
      "properties": {
        "norad_id": 39020,
        "name": "EUTELSAT 70B",
        "group": "eutelsat",
        "lat": 0.07733333276423851,
        "lon": 108.47566283572431,
        "alt_km": 35798.86199162081,
        "timestamp": "2025-12-04T21:36:15.545805+00:00",
        "meta_object_name": "EUTELSAT 70B",
        "meta_object_id": "2012-069A",
        "meta_epoch": "2025-12-04T14:03:47.674944",
        "meta_mean_motion": 1.00271728,
        "meta_eccentricity": 0.000432,
        "meta_inclination": 0.0633,
        "meta_ra_of_asc_node": 4.4819,
        "meta_arg_of_pericenter": 238.1635,
        "meta_mean_anomaly": 112.4595,
        "meta_ephemeris_type": 0,
        "meta_classification_type": "U",
        "meta_norad_cat_id": 39020,
        "meta_element_set_no": 999,
        "meta_rev_at_epoch": 4755,
        "meta_bstar": 0,
        "meta_mean_motion_dot": -2.9e-07,
        "meta_mean_motion_ddot": 0,
        "tle_line1": "1 39020U 12069A   25338.58596846 -.00000029  00000+0  00000+0 0  9994",
        "tle_line2": "2 39020   0.0633   4.4819 0004320 238.1635 112.4595  1.00271728 47557"
      },
      "geometry": {
        "type": "Point",
        "coordinates": [
          108.47566283572431,
          0.07733333276423851
        ]
      }
    },
    {
      "type": "Feature",
      "properties": {
        "norad_id": 39122,
        "name": "EUTELSAT 117 WEST A",
        "group": "eutelsat",
        "lat": -0.027441107500732705,
        "lon": -78.7555241664779,
        "alt_km": 35773.606441218464,
        "timestamp": "2025-12-04T21:36:15.545819+00:00",
        "meta_object_name": "EUTELSAT 117 WEST A",
        "meta_object_id": "2013-012A",
        "meta_epoch": "2025-12-04T13:10:15.303936",
        "meta_mean_motion": 1.00272437,
        "meta_eccentricity": 0.00032089,
        "meta_inclination": 0.0194,
        "meta_ra_of_asc_node": 314.6933,
        "meta_arg_of_pericenter": 301.181,
        "meta_mean_anomaly": 258.5257,
        "meta_ephemeris_type": 0,
        "meta_classification_type": "U",
        "meta_norad_cat_id": 39122,
        "meta_element_set_no": 999,
        "meta_rev_at_epoch": 4648,
        "meta_bstar": 0,
        "meta_mean_motion_dot": 1e-08,
        "meta_mean_motion_ddot": 0,
        "tle_line1": "1 39122U 13012A   25338.54878824  .00000001  00000+0  00000+0 0  9990",
        "tle_line2": "2 39122   0.0194 314.6933 0003208 301.1810 258.5257  1.00272437 46481"
      },
      "geometry": {
        "type": "Point",
        "coordinates": [
          -78.7555241664779,
          -0.027441107500732705
        ]
      }
    },
    {
      "type": "Feature",
      "properties": {
        "norad_id": 39163,
        "name": "EUTELSAT 7B",
        "group": "eutelsat",
        "lat": 0.06908053799371591,
        "lon": 45.05201268675678,
        "alt_km": 35787.91593822553,
        "timestamp": "2025-12-04T21:36:15.545831+00:00",
        "meta_object_name": "EUTELSAT 7B",
        "meta_object_id": "2013-022A",
        "meta_epoch": "2025-12-04T10:18:38.727360",
        "meta_mean_motion": 1.00269718,
        "meta_eccentricity": 0.00042735,
        "meta_inclination": 0.0678,
        "meta_ra_of_asc_node": 2.7542,
        "meta_arg_of_pericenter": 308.3811,
        "meta_mean_anomaly": 284.0236,
        "meta_ephemeris_type": 0,
        "meta_classification_type": "U",
        "meta_norad_cat_id": 39163,
        "meta_element_set_no": 999,
        "meta_rev_at_epoch": 4600,
        "meta_bstar": 0,
        "meta_mean_motion_dot": 6.3e-07,
        "meta_mean_motion_ddot": 0,
        "tle_line1": "1 39163U 13022A   25338.42961490  .00000063  00000+0  00000+0 0  9993",
        "tle_line2": "2 39163   0.0678   2.7542 0004273 308.3811 284.0236  1.00269718 46004"
      },
      "geometry": {
        "type": "Point",
        "coordinates": [
          45.05201268675678,
          0.06908053799371591
        ]
      }
    },
    {
      "type": "Feature",
      "properties": {
        "norad_id": 39612,
        "name": "EXPRESS-AT1",
        "group": "eutelsat",
        "lat": 0.02611545399869072,
        "lon": 94.00756364927697,
        "alt_km": 35786.32518925447,
        "timestamp": "2025-12-04T21:36:15.545844+00:00",
        "meta_object_name": "EXPRESS-AT1",
        "meta_object_id": "2014-010A",
        "meta_epoch": "2025-12-04T13:59:33.080064",
        "meta_mean_motion": 1.00270212,
        "meta_eccentricity": 1.36e-05,
        "meta_inclination": 0.0176,
        "meta_ra_of_asc_node": 304.2222,
        "meta_arg_of_pericenter": 222.5945,
        "meta_mean_anomaly": 172.7241,
        "meta_ephemeris_type": 0,
        "meta_classification_type": "U",
        "meta_norad_cat_id": 39612,
        "meta_element_set_no": 999,
        "meta_rev_at_epoch": 4286,
        "meta_bstar": 0,
        "meta_mean_motion_dot": 9.3e-07,
        "meta_mean_motion_ddot": 0,
        "tle_line1": "1 39612U 14010A   25338.58302176  .00000093  00000+0  00000+0 0  9990",
        "tle_line2": "2 39612   0.0176 304.2222 0000136 222.5945 172.7241  1.00270212 42860"
      },
      "geometry": {
        "type": "Point",
        "coordinates": [
          94.00756364927697,
          0.02611545399869072
        ]
      }
    },
    {
      "type": "Feature",
      "properties": {
        "norad_id": 39613,
        "name": "EXPRESS-AT2",
        "group": "eutelsat",
        "lat": -0.01753952770225196,
        "lon": 177.84235292766425,
        "alt_km": 35789.38667667801,
        "timestamp": "2025-12-04T21:36:15.545856+00:00",
        "meta_object_name": "EXPRESS-AT2",
        "meta_object_id": "2014-010B",
        "meta_epoch": "2025-12-04T14:23:30.784704",
        "meta_mean_motion": 1.00270135,
        "meta_eccentricity": 0.00015244,
        "meta_inclination": 0.0201,
        "meta_ra_of_asc_node": 341.3223,
        "meta_arg_of_pericenter": 312.6835,
        "meta_mean_anomaly": 135.391,
        "meta_ephemeris_type": 0,
        "meta_classification_type": "U",
        "meta_norad_cat_id": 39613,
        "meta_element_set_no": 999,
        "meta_rev_at_epoch": 4254,
        "meta_bstar": 0,
        "meta_mean_motion_dot": 0,
        "meta_mean_motion_ddot": 0,
        "tle_line1": "1 39613U 14010B   25338.59966186  .00000000  00000+0  00000+0 0  9997",
        "tle_line2": "2 39613   0.0201 341.3223 0001524 312.6835 135.3910  1.00270135 42541"
      },
      "geometry": {
        "type": "Point",
        "coordinates": [
          177.84235292766425,
          -0.01753952770225196
        ]
      }
    }
  ]
}